IRIDIUM 119             
1 42959U 17061E   24107.60285560 -.00000018  00000+0 -13640-4 0  9998
2 42959  86.4013 356.0594 0002281  83.9576 276.1880 14.34217283341359
IRIDIUM 107             
1 42960U 17061F   24107.62188617 -.00000701  00000+0 -25747-3 0  9996
2 42960  86.4013 356.0674 0002272  78.9160 281.2291 14.34214537341366
IRIDIUM 132             
1 42961U 17061G   24107.41891930  .00000181  00000+0  57564-4 0  9996
2 42961  86.4015 356.1376 0002361  80.7369 279.4094 14.34217640341335
IRIDIUM 136             
1 42962U 17061H   24107.45063314  .00000118  00000+0  35059-4 0  9993
2 42962  86.4015 356.1275 0002410  90.0127 270.1345 14.34218395341352
IRIDIUM 139             
1 42963U 17061J   24107.38719838  .00000488  00000+0  16710-3 0  9997
2 42963  86.4017 356.2030 0002308  78.0967 282.0488 14.34223733341351
IRIDIUM 125             
1 42964U 17061K   24107.44429044  .00000137  00000+0  41946-4 0  9993
2 42964  86.4019 356.2257 0002495  85.2993 274.8488 14.34218454341376
IRIDIUM 135             
1 43070U 17083A   24107.55797107  .00000270  00000+0  89350-4 0  9995
2 43070  86.3912 292.8522 0001719  87.3102 272.8290 14.34217808330682
IRIDIUM 138             
1 43071U 17083B   24107.51357583  .00000265  00000+0  87488-4 0  9996
2 43071  86.3902 292.5956 0002374  90.7277 269.4191 14.34219048330667
